KUIPER-00300            
1 68597U 26072AA  26099.50522254  .00016797  00000+0  47020-3 0  9998
2 68597  51.8667 149.1055 0008297 129.8474 230.3243 15.36728940   817
